GLOBALSTAR M057 [-]     
1 25943U 99058A   24069.84743125 -.00000076  00000+0  15256-3 0  9994
2 25943  51.9962 225.9441 0003354 124.6679 235.4487 12.24781446110031
GLOBALSTAR M059 [-]     
1 25944U 99058B   24069.86429970 -.00000126  00000+0 -49560-3 0  9998
2 25944  52.0045  23.2907 0000622  97.3066 284.0842 11.99963875518309
GLOBALSTAR M056 [-]     
1 25945U 99058C   24069.34585022 -.00000115  00000+0 -32007-3 0  9999
2 25945  51.9983  38.5924 0001063 346.4480 181.9051 12.04772038106592
GLOBALSTAR M031 [-]     
1 25946U 99058D   24069.93006878  .00000052  00000+0  14505-2 0  9992
2 25946  51.9978 317.1091 0001303 348.1325 144.9739 12.16003841108060
GLOBALSTAR M039 [-]     
1 25961U 99062A   24069.76575182 -.00000059  00000+0  24966-3 0  9995
2 25961  51.9822 243.2034 0003362  52.6175 307.4997 12.62284410121564
GLOBALSTAR M034 [-]     
1 25962U 99062B   24069.89165859  .00000008  00000+0  14148-2 0  9999
2 25962  51.9860 138.2633 0013960 242.1639 289.9547 11.79424941 83600
GLOBALSTAR M029 [-]     
1 25963U 99062C   24069.84079071 -.00000058  00000+0  34966-3 0  9992
2 25963  51.9788 271.7928 0001717 295.3930  82.0350 11.99874963113389
GLOBALSTAR M061 [-]     
1 25964U 99062D   24069.43876361 -.00000088  00000+0 -12321-3 0  9990
2 25964  51.9813 317.3197 0005944 164.6041  13.8053 11.76758525 66469
